{
  "type": "FeatureCollection",
  "features": [
    {
      "type": "Feature",
      "properties": {
        "norad_id": 22490,
        "name": "SCD 1",
        "group": "resource",
        "lat": 19.30503198187805,
        "lon": -18.547816420460283,
        "alt_km": 744.3020388638879,
        "timestamp": "2025-12-10T11:33:53.047566+00:00",
        "meta_object_name": "SCD 1",
        "meta_object_id": "1993-009B",
        "meta_epoch": "2025-12-10T04:53:32.246016",
        "meta_mean_motion": 14.45996078,
        "meta_eccentricity": 0.0041736,
        "meta_inclination": 24.9703,
        "meta_ra_of_asc_node": 294.3414,
        "meta_arg_of_pericenter": 298.0723,
        "meta_mean_anomaly": 102.906,
        "meta_ephemeris_type": 0,
        "meta_classification_type": "U",
        "meta_norad_cat_id": 22490,
        "meta_element_set_no": 999,
        "meta_rev_at_epoch": 73373,
        "meta_bstar": 0.00014938,
        "meta_mean_motion_dot": 7.32e-06,
        "meta_mean_motion_ddot": 0,
        "tle_line1": "1 22490U 93009B   25344.20384544  .00000732  00000+0  14938-3 0  9995",
        "tle_line2": "2 22490  24.9703 294.3414 0041736 298.0723 102.9060 14.45996078733737"
      },
      "geometry": {
        "type": "Point",
        "coordinates": [
          -18.547816420460283,
          19.30503198187805
        ]
      }
    },
    {
      "type": "Feature",
      "properties": {
        "norad_id": 25397,
        "name": "TECHSAT 1B (GO-32)",
        "group": "resource",
        "lat": 60.86738836566449,
        "lon": 164.14660642292634,
        "alt_km": 803.8111751407596,
        "timestamp": "2025-12-10T11:33:53.047595+00:00",
        "meta_object_name": "TECHSAT 1B (GO-32)",
        "meta_object_id": "1998-043D",
        "meta_epoch": "2025-12-09T21:31:36.423840",
        "meta_mean_motion": 14.2437571,
        "meta_eccentricity": 0.0002134,
        "meta_inclination": 98.9917,
        "meta_ra_of_asc_node": 327.0435,
        "meta_arg_of_pericenter": 61.9016,
        "meta_mean_anomaly": 298.2377,
        "meta_ephemeris_type": 0,
        "meta_classification_type": "U",
        "meta_norad_cat_id": 25397,
        "meta_element_set_no": 999,
        "meta_rev_at_epoch": 42438,
        "meta_bstar": 8.9466e-05,
        "meta_mean_motion_dot": 1.6e-06,
        "meta_mean_motion_ddot": 0,
        "tle_line1": "1 25397U 98043D   25343.89694935  .00000160  00000+0  89466-4 0  9993",
        "tle_line2": "2 25397  98.9917 327.0435 0002134  61.9016 298.2377 14.24375710424381"
      },
      "geometry": {
        "type": "Point",
        "coordinates": [
          164.14660642292634,
          60.86738836566449
        ]
      }
    },
    {
      "type": "Feature",
      "properties": {
        "norad_id": 25504,
        "name": "SCD 2",
        "group": "resource",
        "lat": 24.962822564037392,
        "lon": -116.36652941849927,
        "alt_km": 745.950402088888,
        "timestamp": "2025-12-10T11:33:53.047611+00:00",
        "meta_object_name": "SCD 2",
        "meta_object_id": "1998-060A",
        "meta_epoch": "2025-12-09T18:41:38.027040",
        "meta_mean_motion": 14.45420959,
        "meta_eccentricity": 0.0016592,
        "meta_inclination": 24.9931,
        "meta_ra_of_asc_node": 160.1538,
        "meta_arg_of_pericenter": 281.9313,
        "meta_mean_anomaly": 100.7711,
        "meta_ephemeris_type": 0,
        "meta_classification_type": "U",
        "meta_norad_cat_id": 25504,
        "meta_element_set_no": 999,
        "meta_rev_at_epoch": 43289,
        "meta_bstar": 0.0001259,
        "meta_mean_motion_dot": 6.33e-06,
        "meta_mean_motion_ddot": 0,
        "tle_line1": "1 25504U 98060A   25343.77891235  .00000633  00000+0  12590-3 0  9999",
        "tle_line2": "2 25504  24.9931 160.1538 0016592 281.9313 100.7711 14.45420959432896"
      },
      "geometry": {
        "type": "Point",
        "coordinates": [
          -116.36652941849927,
          24.962822564037392
        ]
      }
    },
    {
      "type": "Feature",
      "properties": {
        "norad_id": 25757,
        "name": "DLR-TUBSAT",
        "group": "resource",
        "lat": 69.29625201026057,
        "lon": 172.69583987875632,
        "alt_km": 711.3776379648561,
        "timestamp": "2025-12-10T11:33:53.047623+00:00",
        "meta_object_name": "DLR-TUBSAT",
        "meta_object_id": "1999-029B",
        "meta_epoch": "2025-12-09T16:52:35.211648",
        "meta_mean_motion": 14.52355963,
        "meta_eccentricity": 0.0013728,
        "meta_inclination": 98.656,
        "meta_ra_of_asc_node": 328.1233,
        "meta_arg_of_pericenter": 202.2533,
        "meta_mean_anomaly": 157.8067,
        "meta_ephemeris_type": 0,
        "meta_classification_type": "U",
        "meta_norad_cat_id": 25757,
        "meta_element_set_no": 999,
        "meta_rev_at_epoch": 40574,
        "meta_bstar": 8.0486e-05,
        "meta_mean_motion_dot": 2.8e-06,
        "meta_mean_motion_ddot": 0,
        "tle_line1": "1 25757U 99029B   25343.70318532  .00000280  00000+0  80486-4 0  9990",
        "tle_line2": "2 25757  98.6560 328.1233 0013728 202.2533 157.8067 14.52355963405749"
      },
      "geometry": {
        "type": "Point",
        "coordinates": [
          172.69583987875632,
          69.29625201026057
        ]
      }
    },
    {
      "type": "Feature",
      "properties": {
        "norad_id": 25994,
        "name": "TERRA",
        "group": "resource",
        "lat": 74.77487604701179,
        "lon": -112.74668960822338,
        "alt_km": 680.6294676863836,
        "timestamp": "2025-12-10T11:33:53.047636+00:00",
        "meta_object_name": "TERRA",
        "meta_object_id": "1999-068A",
        "meta_epoch": "2025-12-10T03:00:08.944128",
        "meta_mean_motion": 14.60896949,
        "meta_eccentricity": 0.0003585,
        "meta_inclination": 97.9752,
        "meta_ra_of_asc_node": 35.9055,
        "meta_arg_of_pericenter": 99.4904,
        "meta_mean_anomaly": 288.3258,
        "meta_ephemeris_type": 0,
        "meta_classification_type": "U",
        "meta_norad_cat_id": 25994,
        "meta_element_set_no": 999,
        "meta_rev_at_epoch": 38200,
        "meta_bstar": 0.00015107,
        "meta_mean_motion_dot": 6.95e-06,
        "meta_mean_motion_ddot": 0,
        "tle_line1": "1 25994U 99068A   25344.12510352  .00000695  00000+0  15107-3 0  9994",
        "tle_line2": "2 25994  97.9752  35.9055 0003585  99.4904 288.3258 14.60896949382008"
      },
      "geometry": {
        "type": "Point",
        "coordinates": [
          -112.74668960822338,
          74.77487604701179
        ]
      }
    },
    {
      "type": "Feature",
      "properties": {
        "norad_id": 27004,
        "name": "MAROC-TUBSAT",
        "group": "resource",
        "lat": 70.27267034443216,
        "lon": 1.6733666615927625,
        "alt_km": 1004.9375985037041,
        "timestamp": "2025-12-10T11:33:53.047647+00:00",
        "meta_object_name": "MAROC-TUBSAT",
        "meta_object_id": "2001-056D",
        "meta_epoch": "2025-12-10T02:50:39.296832",
        "meta_mean_motion": 13.7025268,
        "meta_eccentricity": 0.0019089,
        "meta_inclination": 99.7912,
        "meta_ra_of_asc_node": 152.5176,
        "meta_arg_of_pericenter": 267.1204,
        "meta_mean_anomaly": 208.6749,
        "meta_ephemeris_type": 0,
        "meta_classification_type": "U",
        "meta_norad_cat_id": 27004,
        "meta_element_set_no": 999,
        "meta_rev_at_epoch": 20029,
        "meta_bstar": 4.1005e-05,
        "meta_mean_motion_dot": -1.1e-07,
        "meta_mean_motion_ddot": 0,
        "tle_line1": "1 27004U 01056D   25344.11851038 -.00000011  00000+0  41005-4 0  9996",
        "tle_line2": "2 27004  99.7912 152.5176 0019089 267.1204 208.6749 13.70252680200291"
      },
      "geometry": {
        "type": "Point",
        "coordinates": [
          1.6733666615927625,
          70.27267034443216
        ]
      }
    },
    {
      "type": "Feature",
      "properties": {
        "norad_id": 27424,
        "name": "AQUA",
        "group": "resource",
        "lat": -29.152541204615538,
        "lon": -49.94594401005203,
        "alt_km": 693.8113615071188,
        "timestamp": "2025-12-10T11:33:53.047659+00:00",
        "meta_object_name": "AQUA",
        "meta_object_id": "2002-022A",
        "meta_epoch": "2025-12-10T02:07:50.280096",
        "meta_mean_motion": 14.61798592,
        "meta_eccentricity": 9.89e-05,
        "meta_inclination": 98.4035,
        "meta_ra_of_asc_node": 304.9248,
        "meta_arg_of_pericenter": 114.4026,
        "meta_mean_anomaly": 308.8214,
        "meta_ephemeris_type": 0,
        "meta_classification_type": "U",
        "meta_norad_cat_id": 27424,
        "meta_element_set_no": 999,
        "meta_rev_at_epoch": 25564,
        "meta_bstar": 0.00034961,
        "meta_mean_motion_dot": 1.696e-05,
        "meta_mean_motion_ddot": 0,
        "tle_line1": "1 27424U 02022A   25344.08877639  .00001696  00000+0  34961-3 0  9998",
        "tle_line2": "2 27424  98.4035 304.9248 0000989 114.4026 308.8214 14.61798592255644"
      },
      "geometry": {
        "type": "Point",
        "coordinates": [
          -49.94594401005203,
          -29.152541204615538
        ]
      }
    }
  ]
}